{
"type": "FeatureCollection",
"name": "ward_boundaries",
"crs": { "type": "name", "properties": { "name": "urn:ogc:def:crs:OGC:1.3:CRS84" } },
"features": [
{ "type": "Feature", "properties": { "WARD_KEY": "16" }, "geometry": { "type": "Polygon", "coordinates": [ [ [ -79.300592561, 43.719785828 ], [ -79.320074013, 43.715558394 ], [ -79.320039147, 43.71479463 ], [ -79.320936266, 43.714496871 ], [ -79.320230998, 43.71368128 ], [ -79.32157397, 43.712401716 ], [ -79.319185349, 43.712436088 ], [ -79.318832882, 43.710990805 ], [ -79.32485066, 43.709571073 ], [ -79.325902503, 43.70832412 ], [ -79.331826976, 43.706074829 ], [ -79.333784517, 43.703015113 ], [ -79.334693974, 43.703077479 ], [ -79.333688669, 43.707058669 ], [ -79.334394981, 43.70999645 ], [ -79.337910904, 43.708880712 ], [ -79.3402841, 43.711368631 ], [ -79.339854919, 43.713009348 ], [ -79.342858708, 43.713354372 ], [ -79.346604825, 43.716058229 ], [ -79.352321171, 43.715734879 ], [ -79.352627638, 43.716233204 ], [ -79.349979797, 43.717098739 ], [ -79.350407142, 43.718652534 ], [ -79.348931951, 43.72460393 ], [ -79.355272524, 43.731730216 ], [ -79.361876825, 43.761356956 ], [ -79.361969295, 43.764682621 ], [ -79.362927809, 43.766340732 ], [ -79.319794152, 43.768363303 ], [ -79.300592561, 43.719785828 ] ] ] } },
{ "type": "Feature", "properties": { "WARD_KEY": "03" }, "geometry": { "type": "Polygon", "coordinates": [ [ [ -79.497766447, 43.651983193 ], [ -79.493649416, 43.652305409 ], [ -79.49149567, 43.651625679 ], [ -79.49087795, 43.650045841 ], [ -79.492785738, 43.646210293 ], [ -79.489798007, 43.641455718 ], [ -79.48521606, 43.642032999 ], [ -79.484833315, 43.638476106 ], [ -79.477498916, 43.637733354 ], [ -79.475499362, 43.634107037 ], [ -79.471228529, 43.631699264 ], [ -79.470832804, 43.630705436 ], [ -79.472114114, 43.630630162 ], [ -79.475282932, 43.628163076 ], [ -79.476644437, 43.624788139 ], [ -79.475922856, 43.624036093 ], [ -79.476853502, 43.623896185 ], [ -79.4740614, 43.622572494 ], [ -79.473385073, 43.623216296 ], [ -79.474254376, 43.623822221 ], [ -79.473863095, 43.624194904 ], [ -79.472397937, 43.623489211 ], [ -79.471558504, 43.624335169 ], [ -79.472025063, 43.625352446 ], [ -79.47066789, 43.625329628 ], [ -79.469202419, 43.622561316 ], [ -79.473238334, 43.622058152 ], [ -79.474821124, 43.620177167 ], [ -79.474638919, 43.618732395 ], [ -79.47772726, 43.620528335 ], [ -79.47704953, 43.620807695 ], [ -79.477543319, 43.621581913 ], [ -79.479967143, 43.621521849 ], [ -79.477822386, 43.620473958 ], [ -79.480329458, 43.621393417 ], [ -79.47651427, 43.619079317 ], [ -79.47727108, 43.618314342 ], [ -79.478324344, 43.619106666 ], [ -79.478840245, 43.618602684 ], [ -79.478337508, 43.617918482 ], [ -79.477273964, 43.61735163 ], [ -79.475910616, 43.618195897 ], [ -79.47493308, 43.617776913 ], [ -79.4773498, 43.61554938 ], [ -79.477007693, 43.614322165 ], [ -79.478617876, 43.614236948 ], [ -79.479063473, 43.611973177 ], [ -79.480801307, 43.613418192 ], [ -79.483071824, 43.612369892 ], [ -79.484177714, 43.613211669 ], [ -79.483324429, 43.614737277 ], [ -79.482700914, 43.613958566 ], [ -79.480522742, 43.614048243 ], [ -79.480426475, 43.61619057 ], [ -79.478846919, 43.617090442 ], [ -79.480561372, 43.618377943 ], [ -79.481311505, 43.617833476 ], [ -79.481631573, 43.618768264 ], [ -79.48441342, 43.617703317 ], [ -79.487022193, 43.612978885 ], [ -79.486171028, 43.612754686 ], [ -79.486808961, 43.611966441 ], [ -79.486535322, 43.609687499 ], [ -79.492590503, 43.602136357 ], [ -79.496537462, 43.601551381 ], [ -79.498155635, 43.599782676 ], [ -79.498321436, 43.597824869 ], [ -79.499562022, 43.597532329 ], [ -79.500918018, 43.594993845 ], [ -79.505916273, 43.593436518 ], [ -79.506640902, 43.594165649 ], [ -79.510643414, 43.593668363 ], [ -79.509704524, 43.592721698 ], [ -79.510585696, 43.592643351 ], [ -79.509632432, 43.592428482 ], [ -79.510871963, 43.591042919 ], [ -79.508686162, 43.590390396 ], [ -79.510388536, 43.589064395 ], [ -79.510364323, 43.588010955 ], [ -79.509352776, 43.58726791 ], [ -79.514029126, 43.587063162 ], [ -79.517149625, 43.588309561 ], [ -79.513075007, 43.587709074 ], [ -79.511134234, 43.588786759 ], [ -79.511615173, 43.590287689 ], [ -79.515205286, 43.590050577 ], [ -79.515554403, 43.590840841 ], [ -79.515698417, 43.589502112 ], [ -79.514961657, 43.588953422 ], [ -79.51649054, 43.588891307 ], [ -79.516731385, 43.590281414 ], [ -79.518659852, 43.590724328 ], [ -79.52754567, 43.589572327 ], [ -79.529713252, 43.587906495 ], [ -79.530735664, 43.587892721 ], [ -79.530836265, 43.58859031 ], [ -79.533955475, 43.587544444 ], [ -79.53696208, 43.588075395 ], [ -79.542216831, 43.58366296 ], [ -79.543406408, 43.580995995 ], [ -79.544651528, 43.585277068 ], [ -79.548157949, 43.586996732 ], [ -79.546407437, 43.588930403 ], [ -79.549547071, 43.590617336 ], [ -79.548808953, 43.594953389 ], [ -79.553711888, 43.595764884 ], [ -79.553588576, 43.598294305 ], [ -79.555691472, 43.599674952 ], [ -79.556311087, 43.60256864 ], [ -79.562516033, 43.606672949 ], [ -79.564705168, 43.607105335 ], [ -79.564804095, 43.608383487 ], [ -79.567243724, 43.609430697 ], [ -79.567169267, 43.610664739 ], [ -79.563948421, 43.612533684 ], [ -79.568354379, 43.614367413 ], [ -79.5678508, 43.616780117 ], [ -79.566544528, 43.617816056 ], [ -79.56690702, 43.620705339 ], [ -79.565581017, 43.621624268 ], [ -79.565533843, 43.624207765 ], [ -79.563601822, 43.624888466 ], [ -79.563760328, 43.627026196 ], [ -79.556768799, 43.628532787 ], [ -79.559585734, 43.636238224 ], [ -79.53536096, 43.64179495 ], [ -79.540476699, 43.653561809 ], [ -79.539654133, 43.653666477 ], [ -79.540215876, 43.654696935 ], [ -79.539580762, 43.655124692 ], [ -79.537864711, 43.65498123 ], [ -79.537155729, 43.652627636 ], [ -79.53257941, 43.652075209 ], [ -79.531985064, 43.650036528 ], [ -79.529347795, 43.651148812 ], [ -79.526552166, 43.650892916 ], [ -79.522401736, 43.648269391 ], [ -79.520208374, 43.650679756 ], [ -79.517483431, 43.657868399 ], [ -79.505521988, 43.662805419 ], [ -79.499519681, 43.658687541 ], [ -79.500025674, 43.657166285 ], [ -79.502508259, 43.655136363 ], [ -79.502779267, 43.653214572 ], [ -79.497766447, 43.651983193 ] ] ] } },
{ "type": "Feature", "properties": { "WARD_KEY": "15" }, "geometry": { "type": "Polygon", "coordinates": [ [ [ -79.352627638, 43.716233204 ], [ -79.346604825, 43.716058229 ], [ -79.342858708, 43.713354372 ], [ -79.339854919, 43.713009348 ], [ -79.3402841, 43.711368631 ], [ -79.337910904, 43.708880712 ], [ -79.334394981, 43.70999645 ], [ -79.333688669, 43.707058669 ], [ -79.334693974, 43.703077479 ], [ -79.336588639, 43.702714342 ], [ -79.344329975, 43.698286563 ], [ -79.349044395, 43.7000044 ], [ -79.355020589, 43.698046538 ], [ -79.356928162, 43.695424881 ], [ -79.359629396, 43.695427916 ], [ -79.361668721, 43.694179198 ], [ -79.359937932, 43.691632211 ], [ -79.361675664, 43.688855374 ], [ -79.362893095, 43.688815105 ], [ -79.363584171, 43.687916782 ], [ -79.363671747, 43.689203112 ], [ -79.361944776, 43.691743874 ], [ -79.363743493, 43.693570422 ], [ -79.366878496, 43.694354511 ], [ -79.370854355, 43.690629571 ], [ -79.381353223, 43.69508702 ], [ -79.384847363, 43.694026886 ], [ -79.391226886, 43.711128747 ], [ -79.398997427, 43.709583352 ], [ -79.408109745, 43.749793543 ], [ -79.408388707, 43.75361635 ], [ -79.398458651, 43.759836203 ], [ -79.39332484, 43.761933332 ], [ -79.376343309, 43.765459783 ], [ -79.362927809, 43.766340732 ], [ -79.361969295, 43.764682621 ], [ -79.361876825, 43.761356956 ], [ -79.355272524, 43.731730216 ], [ -79.348931951, 43.72460393 ], [ -79.350407142, 43.718652534 ], [ -79.349979797, 43.717098739 ], [ -79.352627638, 43.716233204 ] ] ] } },
{ "type": "Feature", "properties": { "WARD_KEY": "23" }, "geometry": { "type": "Polygon", "coordinates": [ [ [ -79.225906961, 43.839601785 ], [ -79.222798308, 43.838712259 ], [ -79.222853399, 43.83754225 ], [ -79.221829128, 43.836518167 ], [ -79.223980021, 43.835312663 ], [ -79.223635031, 43.833772645 ], [ -79.221479415, 43.832304813 ], [ -79.219152935, 43.83242967 ], [ -79.217523126, 43.830379281 ], [ -79.232297815, 43.825725054 ], [ -79.230142952, 43.823034144 ], [ -79.230539318, 43.821747989 ], [ -79.225323175, 43.811422947 ], [ -79.220142875, 43.808308138 ], [ -79.217367512, 43.804750359 ], [ -79.218347099, 43.800023559 ], [ -79.215721813, 43.793678974 ], [ -79.234623113, 43.785783451 ], [ -79.274776466, 43.777282439 ], [ -79.286616596, 43.804463516 ], [ -79.288800352, 43.807050862 ], [ -79.297332525, 43.825950474 ], [ -79.227814266, 43.842090584 ], [ -79.225906961, 43.839601785 ] ] ] } },
{ "type": "Feature", "properties": { "WARD_KEY": "11" }, "geometry": { "type": "Polygon", "coordinates": [ [ [ -79.38664591, 43.687701419 ], [ -79.390918898, 43.691301334 ], [ -79.388741841, 43.691724973 ], [ -79.389124911, 43.693104965 ], [ -79.381353223, 43.69508702 ], [ -79.370854355, 43.690629571 ], [ -79.366878496, 43.694354511 ], [ -79.362676522, 43.693071318 ], [ -79.361954654, 43.691375297 ], [ -79.363779744, 43.688524641 ], [ -79.363584171, 43.687916782 ], [ -79.362843795, 43.68883537 ], [ -79.362168007, 43.688466555 ], [ -79.361708744, 43.685103477 ], [ -79.36634444, 43.681032828 ], [ -79.363731444, 43.67879746 ], [ -79.364956492, 43.676728624 ], [ -79.362985432, 43.674809103 ], [ -79.36301048, 43.673323909 ], [ -79.360525557, 43.671970731 ], [ -79.359710847, 43.67046188 ], [ -79.361115134, 43.670031659 ], [ -79.370175724, 43.672633652 ], [ -79.377145034, 43.673147818 ], [ -79.376854292, 43.672358547 ], [ -79.379468077, 43.671825715 ], [ -79.379905718, 43.669973975 ], [ -79.388869123, 43.668196681 ], [ -79.385854942, 43.660815665 ], [ -79.383110377, 43.661371813 ], [ -79.380926409, 43.656328776 ], [ -79.403747536, 43.651741006 ], [ -79.405598624, 43.652377037 ], [ -79.420782156, 43.649334078 ], [ -79.429396412, 43.670972704 ], [ -79.401577632, 43.676667389 ], [ -79.391405432, 43.680969545 ], [ -79.392854227, 43.685025923 ], [ -79.39025729, 43.68559309 ], [ -79.390725398, 43.686792615 ], [ -79.38664591, 43.687701419 ] ] ] } },
{ "type": "Feature", "properties": { "WARD_KEY": "10" }, "geometry": { "type": "Polygon", "coordinates": [ [ [ -79.383766191, 43.655715964 ], [ -79.379134973, 43.645987057 ], [ -79.376974315, 43.646884793 ], [ -79.376503082, 43.645783876 ], [ -79.37174132, 43.648041593 ], [ -79.349523686, 43.653599436 ], [ -79.347465197, 43.650513197 ], [ -79.359853902, 43.645298574 ], [ -79.349647804, 43.633394294 ], [ -79.352515255, 43.633712639 ], [ -79.349387278, 43.631023072 ], [ -79.349823492, 43.629040788 ], [ -79.35020944, 43.629734057 ], [ -79.354412135, 43.629770581 ], [ -79.358929901, 43.624629563 ], [ -79.366453124, 43.6193381 ], [ -79.375841656, 43.614533683 ], [ -79.379697118, 43.613725546 ], [ -79.382182955, 43.612225365 ], [ -79.388771105, 43.611954437 ], [ -79.389851416, 43.612399351 ], [ -79.389936815, 43.613655683 ], [ -79.391614159, 43.615058641 ], [ -79.391919368, 43.61665098 ], [ -79.394470658, 43.619860667 ], [ -79.40136007, 43.625394383 ], [ -79.403291494, 43.626637975 ], [ -79.404286652, 43.626441081 ], [ -79.404762537, 43.627433239 ], [ -79.398765535, 43.631551416 ], [ -79.397922933, 43.633362013 ], [ -79.402315803, 43.631018354 ], [ -79.405063448, 43.633116266 ], [ -79.408624407, 43.633066399 ], [ -79.408792527, 43.631700162 ], [ -79.409997387, 43.631116615 ], [ -79.409054732, 43.629651103 ], [ -79.410194601, 43.629237901 ], [ -79.41086793, 43.627478553 ], [ -79.415588069, 43.626869864 ], [ -79.416195058, 43.628103508 ], [ -79.418634975, 43.62675045 ], [ -79.415018356, 43.626401378 ], [ -79.420013922, 43.626755876 ], [ -79.422479221, 43.627540612 ], [ -79.422466409, 43.629061838 ], [ -79.419626364, 43.629316549 ], [ -79.419873562, 43.628340042 ], [ -79.418032369, 43.628227773 ], [ -79.418427591, 43.629496186 ], [ -79.420139507, 43.630130192 ], [ -79.427775474, 43.629793469 ], [ -79.428706565, 43.632913271 ], [ -79.425424383, 43.633879547 ], [ -79.428644194, 43.642208421 ], [ -79.421397192, 43.640611397 ], [ -79.42475152, 43.649437887 ], [ -79.420782156, 43.649334078 ], [ -79.405598624, 43.652377037 ], [ -79.403747536, 43.651741006 ], [ -79.383766191, 43.655715964 ] ] ] } },
{ "type": "Feature", "properties": { "WARD_KEY": "09" }, "geometry": { "type": "Polygon", "coordinates": [ [ [ -79.450278981, 43.695691999 ], [ -79.446117227, 43.685566389 ], [ -79.438693767, 43.687134 ], [ -79.438258443, 43.686362956 ], [ -79.434639635, 43.687098298 ], [ -79.433259184, 43.683292238 ], [ -79.433815811, 43.68302467 ], [ -79.430226176, 43.67473527 ], [ -79.430983499, 43.674722702 ], [ -79.420782156, 43.649334078 ], [ -79.42475152, 43.649437887 ], [ -79.421397192, 43.640611397 ], [ -79.427193702, 43.641806282 ], [ -79.442329547, 43.64945209 ], [ -79.469523314, 43.676873648 ], [ -79.470558172, 43.679695249 ], [ -79.466453028, 43.680601874 ], [ -79.467675092, 43.681895353 ], [ -79.461298535, 43.683238916 ], [ -79.464620648, 43.692155606 ], [ -79.463053183, 43.692842859 ], [ -79.450278981, 43.695691999 ] ] ] } },
{ "type": "Feature", "properties": { "WARD_KEY": "05" }, "geometry": { "type": "Polygon", "coordinates": [ [ [ -79.472566684, 43.724869905 ], [ -79.465456047, 43.693850133 ], [ -79.463064891, 43.689340881 ], [ -79.461298535, 43.683238916 ], [ -79.467675092, 43.681895353 ], [ -79.466453028, 43.680601874 ], [ -79.470558172, 43.679695249 ], [ -79.469523314, 43.676873648 ], [ -79.460045886, 43.667225958 ], [ -79.473968448, 43.667333696 ], [ -79.505964113, 43.665447314 ], [ -79.509073866, 43.66477645 ], [ -79.512211631, 43.662633663 ], [ -79.513075592, 43.666166588 ], [ -79.511273993, 43.668277687 ], [ -79.512300928, 43.673934876 ], [ -79.508834365, 43.676388031 ], [ -79.505466429, 43.680920483 ], [ -79.505969335, 43.68222554 ], [ -79.509537384, 43.68291364 ], [ -79.51255229, 43.688821798 ], [ -79.513289099, 43.69338398 ], [ -79.511964665, 43.696694072 ], [ -79.518815813, 43.697121819 ], [ -79.521179585, 43.69971694 ], [ -79.528569923, 43.702415208 ], [ -79.531157308, 43.704782625 ], [ -79.535961202, 43.704589367 ], [ -79.535658864, 43.707894014 ], [ -79.538901878, 43.708999981 ], [ -79.539598142, 43.710712112 ], [ -79.537841885, 43.712990102 ], [ -79.526843371, 43.715535525 ], [ -79.499777752, 43.718795618 ], [ -79.472566684, 43.724869905 ] ] ] } },
{ "type": "Feature", "properties": { "WARD_KEY": "17" }, "geometry": { "type": "Polygon", "coordinates": [ [ [ -79.37179079, 43.765923753 ], [ -79.387152098, 43.763311728 ], [ -79.39623006, 43.803270124 ], [ -79.341317897, 43.815650752 ], [ -79.319794152, 43.768363303 ], [ -79.37179079, 43.765923753 ] ] ] } },
{ "type": "Feature", "properties": { "WARD_KEY": "08" }, "geometry": { "type": "Polygon", "coordinates": [ [ [ -79.464574119, 43.692173451 ], [ -79.468507922, 43.704675418 ], [ -79.472566684, 43.724869905 ], [ -79.440753325, 43.732121761 ], [ -79.418896334, 43.745280129 ], [ -79.414588243, 43.749598999 ], [ -79.408388707, 43.75361635 ], [ -79.408109745, 43.749793543 ], [ -79.398366496, 43.706731991 ], [ -79.464574119, 43.692173451 ] ] ] } },
{ "type": "Feature", "properties": { "WARD_KEY": "02" }, "geometry": { "type": "Polygon", "coordinates": [ [ [ -79.570838263, 43.691592488 ], [ -79.525974257, 43.701597946 ], [ -79.521805998, 43.700043335 ], [ -79.518815813, 43.697121819 ], [ -79.511964665, 43.696694072 ], [ -79.513289099, 43.69338398 ], [ -79.51255229, 43.688821798 ], [ -79.509537384, 43.68291364 ], [ -79.505969335, 43.68222554 ], [ -79.505466429, 43.680920483 ], [ -79.508834365, 43.676388031 ], [ -79.512300928, 43.673934876 ], [ -79.511273993, 43.668277687 ], [ -79.513080887, 43.665757023 ], [ -79.512404288, 43.662921682 ], [ -79.511302888, 43.662120704 ], [ -79.505521988, 43.662805419 ], [ -79.517483431, 43.657868399 ], [ -79.520208374, 43.650679756 ], [ -79.522401736, 43.648269391 ], [ -79.526552166, 43.650892916 ], [ -79.529347795, 43.651148812 ], [ -79.531985064, 43.650036528 ], [ -79.53257941, 43.652075209 ], [ -79.537155729, 43.652627636 ], [ -79.537864711, 43.65498123 ], [ -79.539757787, 43.655057126 ], [ -79.539654133, 43.653666477 ], [ -79.540476699, 43.653561809 ], [ -79.53536096, 43.64179495 ], [ -79.559585734, 43.636238224 ], [ -79.556768799, 43.628532787 ], [ -79.563760328, 43.627026196 ], [ -79.564108421, 43.627993688 ], [ -79.566861719, 43.628217153 ], [ -79.568366619, 43.626803034 ], [ -79.57021592, 43.626959442 ], [ -79.575064636, 43.625435089 ], [ -79.585832005, 43.62916185 ], [ -79.585055335, 43.631643374 ], [ -79.58605339, 43.63544571 ], [ -79.585303434, 43.637278044 ], [ -79.588440209, 43.642604408 ], [ -79.590377606, 43.644002585 ], [ -79.592668766, 43.644693846 ], [ -79.595628494, 43.643206175 ], [ -79.598232447, 43.643091428 ], [ -79.602934893, 43.644692625 ], [ -79.60781251, 43.645051946 ], [ -79.608734676, 43.646451321 ], [ -79.588778405, 43.664622336 ], [ -79.591086793, 43.668587829 ], [ -79.581908202, 43.672256715 ], [ -79.563176723, 43.674477761 ], [ -79.570838263, 43.691592488 ] ] ] } },
{ "type": "Feature", "properties": { "WARD_KEY": "01" }, "geometry": { "type": "Polygon", "coordinates": [ [ [ -79.580643884, 43.763017918 ], [ -79.577533989, 43.762126318 ], [ -79.580622773, 43.760363889 ], [ -79.58076659, 43.758927137 ], [ -79.583818971, 43.758695717 ], [ -79.583861512, 43.757435529 ], [ -79.585198921, 43.756728083 ], [ -79.582854972, 43.752548856 ], [ -79.577895627, 43.750360548 ], [ -79.573268986, 43.750360765 ], [ -79.572848235, 43.746961869 ], [ -79.563981605, 43.745256353 ], [ -79.562166012, 43.744074059 ], [ -79.562292862, 43.742853736 ], [ -79.558388826, 43.742731552 ], [ -79.557834084, 43.74096451 ], [ -79.55679361, 43.741412915 ], [ -79.556459631, 43.743101543 ], [ -79.55120958, 43.744238245 ], [ -79.549838772, 43.743586771 ], [ -79.550392504, 43.742337181 ], [ -79.54933788, 43.742537014 ], [ -79.549128478, 43.741760055 ], [ -79.546403728, 43.740946881 ], [ -79.546426634, 43.739789699 ], [ -79.549938469, 43.737913487 ], [ -79.550459391, 43.736003997 ], [ -79.549082405, 43.735794066 ], [ -79.550557823, 43.734717002 ], [ -79.550360137, 43.733533963 ], [ -79.546324277, 43.731443234 ], [ -79.544076683, 43.732273714 ], [ -79.544828449, 43.730801669 ], [ -79.542789691, 43.729839307 ], [ -79.540145831, 43.729781802 ], [ -79.539282791, 43.730884811 ], [ -79.539491102, 43.731946931 ], [ -79.538422546, 43.731618746 ], [ -79.538863908, 43.729260174 ], [ -79.538278873, 43.726906445 ], [ -79.541144858, 43.72592426 ], [ -79.540787717, 43.722265271 ], [ -79.542803487, 43.720360772 ], [ -79.54392875, 43.717416788 ], [ -79.54091571, 43.716742797 ], [ -79.540737527, 43.715356573 ], [ -79.538010235, 43.714313303 ], [ -79.537941932, 43.712395957 ], [ -79.539572291, 43.710343055 ], [ -79.538527174, 43.708735087 ], [ -79.535658864, 43.707894014 ], [ -79.535961202, 43.704589367 ], [ -79.531157308, 43.704782625 ], [ -79.528569923, 43.702415208 ], [ -79.525974257, 43.701597946 ], [ -79.570838263, 43.691592488 ], [ -79.563176723, 43.674477761 ], [ -79.581908202, 43.672256715 ], [ -79.591086793, 43.668587829 ], [ -79.600149679, 43.685107441 ], [ -79.625940117, 43.728187221 ], [ -79.627789484, 43.73317844 ], [ -79.630354714, 43.735469546 ], [ -79.637611954, 43.748300959 ], [ -79.639264937, 43.749870745 ], [ -79.63645482, 43.751055047 ], [ -79.631721858, 43.751509463 ], [ -79.580643884, 43.763017918 ] ] ] } },
{ "type": "Feature", "properties": { "WARD_KEY": "04" }, "geometry": { "type": "Polygon", "coordinates": [ [ [ -79.506539914, 43.665393261 ], [ -79.460045886, 43.667225958 ], [ -79.442243992, 43.649384537 ], [ -79.428210085, 43.642311368 ], [ -79.425424383, 43.633879547 ], [ -79.428706565, 43.632913271 ], [ -79.427775474, 43.629793469 ], [ -79.433623711, 43.630845272 ], [ -79.439264818, 43.633143731 ], [ -79.441141017, 43.634873994 ], [ -79.443224864, 43.634715076 ], [ -79.446835453, 43.636347991 ], [ -79.455231367, 43.637478302 ], [ -79.463940774, 43.635696196 ], [ -79.46804639, 43.634034736 ], [ -79.471228529, 43.631699264 ], [ -79.475499362, 43.634107037 ], [ -79.477498916, 43.637733354 ], [ -79.484833315, 43.638476106 ], [ -79.48521606, 43.642032999 ], [ -79.489901846, 43.641552715 ], [ -79.492785738, 43.646210293 ], [ -79.49087795, 43.650045841 ], [ -79.49149567, 43.651625679 ], [ -79.502487168, 43.652877034 ], [ -79.502508259, 43.655136363 ], [ -79.499529001, 43.657913413 ], [ -79.500144908, 43.659344642 ], [ -79.505767265, 43.662908918 ], [ -79.510247388, 43.6619363 ], [ -79.512211631, 43.662633663 ], [ -79.509378015, 43.664632397 ], [ -79.506539914, 43.665393261 ] ] ] } },
{ "type": "Feature", "properties": { "WARD_KEY": "12" }, "geometry": { "type": "Polygon", "coordinates": [ [ [ -79.388741841, 43.691724973 ], [ -79.390918898, 43.691301334 ], [ -79.38664591, 43.687701419 ], [ -79.390725398, 43.686792615 ], [ -79.39025729, 43.68559309 ], [ -79.392854227, 43.685025923 ], [ -79.391405432, 43.680969545 ], [ -79.401577632, 43.676667389 ], [ -79.429396412, 43.670972704 ], [ -79.434639635, 43.687098298 ], [ -79.438258443, 43.686362956 ], [ -79.438693767, 43.687134 ], [ -79.446117227, 43.685566389 ], [ -79.450278981, 43.695691999 ], [ -79.398366496, 43.706731991 ], [ -79.398997427, 43.709583352 ], [ -79.391226886, 43.711128747 ], [ -79.384847363, 43.694026886 ], [ -79.389124911, 43.693104965 ], [ -79.388741841, 43.691724973 ] ] ] } },
{ "type": "Feature", "properties": { "WARD_KEY": "22" }, "geometry": { "type": "Polygon", "coordinates": [ [ [ -79.309911025, 43.769117457 ], [ -79.319794152, 43.768363303 ], [ -79.341317897, 43.815650752 ], [ -79.297332525, 43.825950474 ], [ -79.288800352, 43.807050862 ], [ -79.286616596, 43.804463516 ], [ -79.274776466, 43.777282439 ], [ -79.309911025, 43.769117457 ] ] ] } },
{ "type": "Feature", "properties": { "WARD_KEY": "21" }, "geometry": { "type": "Polygon", "coordinates": [ [ [ -79.254979856, 43.781222538 ], [ -79.245422779, 43.755548525 ], [ -79.235267231, 43.757721789 ], [ -79.228672825, 43.741017867 ], [ -79.302295616, 43.724713133 ], [ -79.309348348, 43.740919106 ], [ -79.315245441, 43.757869425 ], [ -79.319794152, 43.768363303 ], [ -79.310542798, 43.768987814 ], [ -79.254979856, 43.781222538 ] ] ] } },
{ "type": "Feature", "properties": { "WARD_KEY": "24" }, "geometry": { "type": "Polygon", "coordinates": [ [ [ -79.193515145, 43.78564854 ], [ -79.179202956, 43.75187815 ], [ -79.188688328, 43.746845095 ], [ -79.19945714, 43.737776955 ], [ -79.20759452, 43.733346657 ], [ -79.212761285, 43.728093561 ], [ -79.218913538, 43.743182014 ], [ -79.228672825, 43.741017867 ], [ -79.235267231, 43.757721789 ], [ -79.245422779, 43.755548525 ], [ -79.254979856, 43.781222538 ], [ -79.231875529, 43.786635861 ], [ -79.216349075, 43.793518505 ], [ -79.19701006, 43.796521904 ], [ -79.193515145, 43.78564854 ] ] ] } },
{ "type": "Feature", "properties": { "WARD_KEY": "25" }, "geometry": { "type": "Polygon", "coordinates": [ [ [ -79.170291514, 43.855457183 ], [ -79.151742848, 43.813984662 ], [ -79.146672219, 43.811342135 ], [ -79.146095798, 43.810066709 ], [ -79.143638139, 43.810062264 ], [ -79.143138172, 43.810722812 ], [ -79.143151052, 43.809630247 ], [ -79.141972641, 43.809641409 ], [ -79.140639936, 43.808447665 ], [ -79.13816321, 43.80749477 ], [ -79.135892478, 43.808036626 ], [ -79.134099232, 43.806856736 ], [ -79.134390751, 43.804428676 ], [ -79.133671465, 43.802962702 ], [ -79.135256133, 43.800671846 ], [ -79.131027066, 43.801781977 ], [ -79.127683109, 43.800286362 ], [ -79.125178586, 43.800126357 ], [ -79.124226668, 43.799010227 ], [ -79.124225226, 43.797427291 ], [ -79.121932276, 43.797402994 ], [ -79.12030619, 43.796154462 ], [ -79.121003346, 43.794740603 ], [ -79.115243191, 43.794614734 ], [ -79.117017662, 43.794254297 ], [ -79.119939866, 43.791434571 ], [ -79.120429825, 43.79057008 ], [ -79.119789198, 43.790354584 ], [ -79.12168814, 43.78771632 ], [ -79.13387421, 43.775758388 ], [ -79.134094929, 43.774011508 ], [ -79.135247869, 43.774083874 ], [ -79.13879158, 43.77010131 ], [ -79.140049366, 43.769980516 ], [ -79.140894501, 43.768680562 ], [ -79.142000734, 43.768904928 ], [ -79.146408696, 43.765739424 ], [ -79.15175357, 43.759961313 ], [ -79.153227662, 43.759102719 ], [ -79.158975459, 43.758693982 ], [ -79.167280472, 43.756834476 ], [ -79.179202956, 43.75187815 ], [ -79.193515145, 43.78564854 ], [ -79.19701006, 43.796521904 ], [ -79.215721813, 43.793678974 ], [ -79.218347099, 43.800023559 ], [ -79.217367512, 43.804750359 ], [ -79.220142875, 43.808308138 ], [ -79.225323175, 43.811422947 ], [ -79.230539318, 43.821747989 ], [ -79.230142952, 43.823034144 ], [ -79.232297815, 43.825725054 ], [ -79.217523126, 43.830379281 ], [ -79.219152935, 43.83242967 ], [ -79.221479415, 43.832304813 ], [ -79.223635031, 43.833772645 ], [ -79.223980021, 43.835312663 ], [ -79.221829128, 43.836518167 ], [ -79.222853399, 43.83754225 ], [ -79.222626123, 43.838464315 ], [ -79.225906961, 43.839601785 ], [ -79.227814266, 43.842090584 ], [ -79.170291514, 43.855457183 ] ] ] } },
{ "type": "Feature", "properties": { "WARD_KEY": "20" }, "geometry": { "type": "Polygon", "coordinates": [ [ [ -79.279032687, 43.671671385 ], [ -79.281898781, 43.678341204 ], [ -79.28315523, 43.678637267 ], [ -79.302645014, 43.724723021 ], [ -79.218913538, 43.743182014 ], [ -79.212761285, 43.728093561 ], [ -79.217081451, 43.723158665 ], [ -79.217116314, 43.722140424 ], [ -79.219192993, 43.722062052 ], [ -79.223547469, 43.718026225 ], [ -79.225966627, 43.712887181 ], [ -79.225019204, 43.711048183 ], [ -79.226505106, 43.708824784 ], [ -79.226040252, 43.707313688 ], [ -79.228070961, 43.708240074 ], [ -79.226746776, 43.709742511 ], [ -79.226516437, 43.712235119 ], [ -79.229503905, 43.712528823 ], [ -79.230585307, 43.711351092 ], [ -79.230012092, 43.710343882 ], [ -79.22920192, 43.710407603 ], [ -79.229170652, 43.711736358 ], [ -79.227229399, 43.711588381 ], [ -79.228227539, 43.710931275 ], [ -79.227899503, 43.709352847 ], [ -79.229621204, 43.709271877 ], [ -79.228446611, 43.709004066 ], [ -79.229530862, 43.707712145 ], [ -79.229897533, 43.708484916 ], [ -79.231800537, 43.708443382 ], [ -79.230074032, 43.710258666 ], [ -79.231317622, 43.710559819 ], [ -79.233077497, 43.70925994 ], [ -79.233436731, 43.707588248 ], [ -79.229816799, 43.705874581 ], [ -79.228617404, 43.707421057 ], [ -79.227593601, 43.707379747 ], [ -79.229146624, 43.705846462 ], [ -79.228942027, 43.704752527 ], [ -79.233269902, 43.705296312 ], [ -79.232637697, 43.706677683 ], [ -79.233752995, 43.706918001 ], [ -79.234335265, 43.706357552 ], [ -79.233573526, 43.705820614 ], [ -79.236538618, 43.703275049 ], [ -79.23559825, 43.701290455 ], [ -79.23752456, 43.702321743 ], [ -79.239149046, 43.702047727 ], [ -79.239122172, 43.70243022 ], [ -79.23825981, 43.70256292 ], [ -79.236747646, 43.704186835 ], [ -79.237250863, 43.705053419 ], [ -79.238043192, 43.704863705 ], [ -79.238492976, 43.704434986 ], [ -79.237576604, 43.704240149 ], [ -79.239548987, 43.703775566 ], [ -79.238048107, 43.703273054 ], [ -79.238435176, 43.702580349 ], [ -79.241593442, 43.702816666 ], [ -79.243214725, 43.701841432 ], [ -79.243867545, 43.700390694 ], [ -79.255676175, 43.69501661 ], [ -79.25860482, 43.692544084 ], [ -79.259658523, 43.69040429 ], [ -79.266558737, 43.684584394 ], [ -79.270654723, 43.679737969 ], [ -79.2714043, 43.679735928 ], [ -79.271799178, 43.678505468 ], [ -79.272680813, 43.678542701 ], [ -79.277550868, 43.671936624 ], [ -79.279032687, 43.671671385 ] ] ] } },
{ "type": "Feature", "properties": { "WARD_KEY": "19" }, "geometry": { "type": "Polygon", "coordinates": [ [ [ -79.300592561, 43.719785828 ], [ -79.28315523, 43.678637267 ], [ -79.281898781, 43.678341204 ], [ -79.279032687, 43.671671385 ], [ -79.281416483, 43.670334025 ], [ -79.28558573, 43.66983234 ], [ -79.287255055, 43.668663623 ], [ -79.287987369, 43.669129788 ], [ -79.289579672, 43.667996032 ], [ -79.289673084, 43.668579961 ], [ -79.290552888, 43.668412622 ], [ -79.296879089, 43.665357662 ], [ -79.299419193, 43.665658041 ], [ -79.303302073, 43.664597024 ], [ -79.306400621, 43.660719 ], [ -79.304969308, 43.659859921 ], [ -79.306119077, 43.658562904 ], [ -79.305028612, 43.656638774 ], [ -79.307692719, 43.65619112 ], [ -79.308624418, 43.654163164 ], [ -79.311213982, 43.655845872 ], [ -79.3085378, 43.655971791 ], [ -79.306858048, 43.657194262 ], [ -79.310343789, 43.658397298 ], [ -79.311203574, 43.657259995 ], [ -79.310417669, 43.656687083 ], [ -79.312644551, 43.656978795 ], [ -79.311741269, 43.657535435 ], [ -79.311870008, 43.659007431 ], [ -79.314407388, 43.660924351 ], [ -79.313358067, 43.66165028 ], [ -79.314924596, 43.661965896 ], [ -79.328781895, 43.695941598 ], [ -79.329596542, 43.698270461 ], [ -79.327099862, 43.701504362 ], [ -79.331613708, 43.701763846 ], [ -79.333091428, 43.703370899 ], [ -79.332965946, 43.704563885 ], [ -79.332205425, 43.705854406 ], [ -79.325902503, 43.70832412 ], [ -79.32485066, 43.709571073 ], [ -79.318832882, 43.710990805 ], [ -79.319185349, 43.712436088 ], [ -79.32157397, 43.712401716 ], [ -79.320230998, 43.71368128 ], [ -79.320936266, 43.714496871 ], [ -79.320039147, 43.71479463 ], [ -79.320074013, 43.715558394 ], [ -79.300592561, 43.719785828 ] ] ] } },
{ "type": "Feature", "properties": { "WARD_KEY": "18" }, "geometry": { "type": "Polygon", "coordinates": [ [ [ -79.394491509, 43.761572762 ], [ -79.398871651, 43.759602021 ], [ -79.411449219, 43.751653628 ], [ -79.41523699, 43.751978113 ], [ -79.417638393, 43.749816257 ], [ -79.422290746, 43.749609766 ], [ -79.423470636, 43.751309735 ], [ -79.42805727, 43.754131378 ], [ -79.430312128, 43.757515248 ], [ -79.432982086, 43.757188296 ], [ -79.435258074, 43.758863713 ], [ -79.437707233, 43.759031514 ], [ -79.437656444, 43.76044472 ], [ -79.439984311, 43.761557655 ], [ -79.446629751, 43.788114333 ], [ -79.445401413, 43.790692581 ], [ -79.445755162, 43.792407463 ], [ -79.39623006, 43.803270124 ], [ -79.387152098, 43.763311728 ], [ -79.394491509, 43.761572762 ] ] ] } },
{ "type": "Feature", "properties": { "WARD_KEY": "06" }, "geometry": { "type": "Polygon", "coordinates": [ [ [ -79.446629751, 43.788114333 ], [ -79.439984311, 43.761557655 ], [ -79.437656444, 43.76044472 ], [ -79.437967103, 43.759189172 ], [ -79.435258074, 43.758863713 ], [ -79.432982086, 43.757188296 ], [ -79.430312128, 43.757515248 ], [ -79.42805727, 43.754131378 ], [ -79.423470636, 43.751309735 ], [ -79.422290746, 43.749609766 ], [ -79.417638393, 43.749816257 ], [ -79.41523699, 43.751978113 ], [ -79.411449219, 43.751653628 ], [ -79.419860495, 43.744645191 ], [ -79.442302331, 43.731521268 ], [ -79.490690637, 43.720432505 ], [ -79.507830164, 43.717755169 ], [ -79.513221028, 43.739389324 ], [ -79.497023651, 43.742518813 ], [ -79.49788423, 43.743597006 ], [ -79.497960379, 43.745912357 ], [ -79.501929197, 43.747123904 ], [ -79.504736805, 43.749152675 ], [ -79.497545348, 43.750535298 ], [ -79.492068786, 43.752977262 ], [ -79.489469928, 43.751825782 ], [ -79.488173558, 43.752023754 ], [ -79.49464467, 43.777664256 ], [ -79.494506362, 43.78157907 ], [ -79.445755162, 43.792407463 ], [ -79.445401413, 43.790692581 ], [ -79.446629751, 43.788114333 ] ] ] } },
{ "type": "Feature", "properties": { "WARD_KEY": "07" }, "geometry": { "type": "Polygon", "coordinates": [ [ [ -79.49464467, 43.777664256 ], [ -79.488173558, 43.752023754 ], [ -79.489469928, 43.751825782 ], [ -79.492068786, 43.752977262 ], [ -79.497545348, 43.750535298 ], [ -79.504736805, 43.749152675 ], [ -79.501929197, 43.747123904 ], [ -79.497960379, 43.745912357 ], [ -79.49788423, 43.743597006 ], [ -79.497023651, 43.742518813 ], [ -79.513221028, 43.739389324 ], [ -79.507830164, 43.717755169 ], [ -79.525284982, 43.715823868 ], [ -79.537841885, 43.712990102 ], [ -79.538206632, 43.714578791 ], [ -79.540737527, 43.715356573 ], [ -79.54091571, 43.716742797 ], [ -79.544077889, 43.717704797 ], [ -79.542803487, 43.720360772 ], [ -79.540787717, 43.722265271 ], [ -79.541144858, 43.72592426 ], [ -79.538278873, 43.726906445 ], [ -79.538462597, 43.73177176 ], [ -79.539491102, 43.731946931 ], [ -79.539282791, 43.730884811 ], [ -79.540145831, 43.729781802 ], [ -79.542789691, 43.729839307 ], [ -79.544828449, 43.730801669 ], [ -79.544076683, 43.732273714 ], [ -79.546324277, 43.731443234 ], [ -79.550457402, 43.733730765 ], [ -79.550557823, 43.734717002 ], [ -79.549082405, 43.735794066 ], [ -79.550459391, 43.736003997 ], [ -79.549938469, 43.737913487 ], [ -79.546426634, 43.739789699 ], [ -79.546403728, 43.740946881 ], [ -79.549128478, 43.741760055 ], [ -79.54933788, 43.742537014 ], [ -79.550392504, 43.742337181 ], [ -79.549838772, 43.743586771 ], [ -79.55120958, 43.744238245 ], [ -79.556459631, 43.743101543 ], [ -79.55679361, 43.741412915 ], [ -79.557834084, 43.74096451 ], [ -79.558388826, 43.742731552 ], [ -79.562292862, 43.742853736 ], [ -79.562166012, 43.744074059 ], [ -79.563981605, 43.745256353 ], [ -79.572848235, 43.746961869 ], [ -79.573378974, 43.747685815 ], [ -79.572970655, 43.750197843 ], [ -79.577895627, 43.750360548 ], [ -79.582854972, 43.752548856 ], [ -79.585211732, 43.756497028 ], [ -79.583861512, 43.757435529 ], [ -79.58400208, 43.758562983 ], [ -79.58076659, 43.758927137 ], [ -79.580622773, 43.760363889 ], [ -79.577533989, 43.762126318 ], [ -79.580643884, 43.763017918 ], [ -79.494506362, 43.78157907 ], [ -79.49464467, 43.777664256 ] ] ] } },
{ "type": "Feature", "properties": { "WARD_KEY": "14" }, "geometry": { "type": "Polygon", "coordinates": [ [ [ -79.332119489, 43.703036544 ], [ -79.331303325, 43.701656984 ], [ -79.327099862, 43.701504362 ], [ -79.329556597, 43.69793856 ], [ -79.314868154, 43.662273939 ], [ -79.318056123, 43.660890746 ], [ -79.313135273, 43.657920282 ], [ -79.316748763, 43.657298063 ], [ -79.316004455, 43.656093215 ], [ -79.318007508, 43.654327699 ], [ -79.320101258, 43.649388623 ], [ -79.319775508, 43.646107819 ], [ -79.321296467, 43.642685309 ], [ -79.320639405, 43.641775912 ], [ -79.3231654, 43.634774465 ], [ -79.320856373, 43.633211734 ], [ -79.32199293, 43.632469964 ], [ -79.322314126, 43.629858005 ], [ -79.321089099, 43.629347004 ], [ -79.322279889, 43.628953641 ], [ -79.322701469, 43.626696867 ], [ -79.321422025, 43.625891045 ], [ -79.322621796, 43.625557986 ], [ -79.323142767, 43.623991324 ], [ -79.323123963, 43.623074348 ], [ -79.321791965, 43.62237821 ], [ -79.323365077, 43.622142273 ], [ -79.324061836, 43.620846996 ], [ -79.32422816, 43.61835836 ], [ -79.323535665, 43.617340482 ], [ -79.327231544, 43.617531534 ], [ -79.325054474, 43.619421791 ], [ -79.32482639, 43.621581784 ], [ -79.328377639, 43.6217767 ], [ -79.328657213, 43.621323358 ], [ -79.32679018, 43.62010799 ], [ -79.327201801, 43.618843589 ], [ -79.331862412, 43.620408833 ], [ -79.337097046, 43.619142121 ], [ -79.343429076, 43.612732086 ], [ -79.344122744, 43.613256474 ], [ -79.343765645, 43.616726597 ], [ -79.344777269, 43.618151532 ], [ -79.343379732, 43.620348408 ], [ -79.345053836, 43.621772819 ], [ -79.343293613, 43.62214612 ], [ -79.342849446, 43.619672586 ], [ -79.34122947, 43.619499333 ], [ -79.339762141, 43.621212048 ], [ -79.343203465, 43.623385008 ], [ -79.340182783, 43.624056448 ], [ -79.338666292, 43.622141865 ], [ -79.33689992, 43.623191818 ], [ -79.338229787, 43.623136925 ], [ -79.337027411, 43.624835136 ], [ -79.339466141, 43.629390597 ], [ -79.337438971, 43.629024565 ], [ -79.336891558, 43.627513508 ], [ -79.334989186, 43.62742977 ], [ -79.335758107, 43.626346202 ], [ -79.334870793, 43.625251251 ], [ -79.334305126, 43.625984926 ], [ -79.330989755, 43.626125312 ], [ -79.331537654, 43.6272435 ], [ -79.329925734, 43.628386739 ], [ -79.328908416, 43.630942103 ], [ -79.33134823, 43.631260418 ], [ -79.332536039, 43.630157343 ], [ -79.333824194, 43.630432177 ], [ -79.333976246, 43.629420729 ], [ -79.336125353, 43.629086093 ], [ -79.33633852, 43.629920905 ], [ -79.33451554, 43.631634386 ], [ -79.329981403, 43.632854916 ], [ -79.329510265, 43.633686846 ], [ -79.328560868, 43.633167592 ], [ -79.329006127, 43.632089223 ], [ -79.326605279, 43.63187301 ], [ -79.325624405, 43.634217807 ], [ -79.326630317, 43.634598612 ], [ -79.329093702, 43.633625106 ], [ -79.323401927, 43.63753013 ], [ -79.321581626, 43.644724172 ], [ -79.324322326, 43.645205537 ], [ -79.326297029, 43.640797643 ], [ -79.324711831, 43.640070596 ], [ -79.326707494, 43.640433701 ], [ -79.329554066, 43.637064227 ], [ -79.330954485, 43.638743211 ], [ -79.327443004, 43.641542494 ], [ -79.327161184, 43.643278297 ], [ -79.328513614, 43.644304983 ], [ -79.326822773, 43.643975901 ], [ -79.325359945, 43.645634803 ], [ -79.325900926, 43.646898897 ], [ -79.328874149, 43.647413531 ], [ -79.337373019, 43.640341514 ], [ -79.336186796, 43.639421635 ], [ -79.334450359, 43.640502583 ], [ -79.335803555, 43.639377763 ], [ -79.340542945, 43.639166507 ], [ -79.346906968, 43.634525258 ], [ -79.347039158, 43.633218539 ], [ -79.349647804, 43.633394294 ], [ -79.359853902, 43.645298574 ], [ -79.347296937, 43.650748796 ], [ -79.354205099, 43.657664228 ], [ -79.357507984, 43.66864554 ], [ -79.360525557, 43.671970731 ], [ -79.36301048, 43.673323909 ], [ -79.362985432, 43.674809103 ], [ -79.364956492, 43.676728624 ], [ -79.363731444, 43.67879746 ], [ -79.366368425, 43.681397396 ], [ -79.361850246, 43.68472912 ], [ -79.362563495, 43.688006588 ], [ -79.359937932, 43.691632211 ], [ -79.361851084, 43.693843027 ], [ -79.360651223, 43.694947442 ], [ -79.356928162, 43.695424881 ], [ -79.355020589, 43.698046538 ], [ -79.35109829, 43.698870299 ], [ -79.350123961, 43.699862833 ], [ -79.348369422, 43.69993071 ], [ -79.344452656, 43.698264443 ], [ -79.335731047, 43.70307898 ], [ -79.332119489, 43.703036544 ] ] ] } },
{ "type": "Feature", "properties": { "WARD_KEY": "13" }, "geometry": { "type": "Polygon", "coordinates": [ [ [ -79.377145034, 43.673147818 ], [ -79.370175724, 43.672633652 ], [ -79.361115134, 43.670031659 ], [ -79.359710847, 43.67046188 ], [ -79.357384614, 43.668370848 ], [ -79.35428267, 43.657790345 ], [ -79.349523686, 43.653599436 ], [ -79.37174132, 43.648041593 ], [ -79.376503082, 43.645783876 ], [ -79.376974315, 43.646884793 ], [ -79.379134973, 43.645987057 ], [ -79.383766191, 43.655715964 ], [ -79.380926409, 43.656328776 ], [ -79.381369962, 43.657415948 ], [ -79.383110377, 43.661371813 ], [ -79.385854942, 43.660815665 ], [ -79.388869123, 43.668196681 ], [ -79.379905718, 43.669973975 ], [ -79.379468077, 43.671825715 ], [ -79.376854292, 43.672358547 ], [ -79.377145034, 43.673147818 ] ] ] } }
]
}
